[{"OBJECT_NAME":"OBJECT A","OBJECT_ID":"2025-197A","EPOCH":"2026-03-09T23:57:28.367136","MEAN_MOTION":15.09670549,"ECCENTRICITY":0.0013887,"INCLINATION":97.4116,"RA_OF_ASC_NODE":254.3664,"ARG_OF_PERICENTER":14.3167,"MEAN_ANOMALY":345.8453,"EPHEMERIS_TYPE":0,"CLASSIFICATION_TYPE":"U","NORAD_CAT_ID":65488,"ELEMENT_SET_NO":999,"REV_AT_EPOCH":2804,"BSTAR":0.00030852597,"MEAN_MOTION_DOT":4.917e-5,"MEAN_MOTION_DDOT":0},{"OBJECT_NAME":"PEGASUS DEB","OBJECT_ID":"1994-029AFJ","EPOCH":"2026-03-03T19:03:50.475744","MEAN_MOTION":14.72508431,"ECCENTRICITY":0.0165055,"INCLINATION":81.9829,"RA_OF_ASC_NODE":93.0554,"ARG_OF_PERICENTER":318.1487,"MEAN_ANOMALY":40.7194,"EPHEMERIS_TYPE":0,"CLASSIFICATION_TYPE":"U","NORAD_CAT_ID":39323,"ELEMENT_SET_NO":999,"REV_AT_EPOCH":72598,"BSTAR":0.0010497,"MEAN_MOTION_DOT":8.298e-5,"MEAN_MOTION_DDOT":0}]
